STARLINK-2022           
1 47643U 21012Z   23317.23702694  .00006954  00000+0  48531-3 0  9996
2 47643  53.0554 255.9800 0001601  96.7098 263.4074 15.06397293152531
